[{"OBJECT_NAME":"RAISE 2","OBJECT_ID":"2021-102C","EPOCH":"2026-03-09T15:24:00.371808","MEAN_MOTION":15.20242049,"ECCENTRICITY":0.0007134,"INCLINATION":97.3388,"RA_OF_ASC_NODE":104.317,"ARG_OF_PERICENTER":273.4447,"MEAN_ANOMALY":86.5972,"EPHEMERIS_TYPE":0,"CLASSIFICATION_TYPE":"U","NORAD_CAT_ID":49397,"ELEMENT_SET_NO":999,"REV_AT_EPOCH":23830,"BSTAR":0.00039057,"MEAN_MOTION_DOT":8.413e-5,"MEAN_MOTION_DDOT":0},{"OBJECT_NAME":"COSMOS 1275 DEB","OBJECT_ID":"1981-053PA","EPOCH":"2026-03-08T15:19:20.112672","MEAN_MOTION":15.17408079,"ECCENTRICITY":0.00116181,"INCLINATION":83.059,"RA_OF_ASC_NODE":288.5099,"ARG_OF_PERICENTER":114.3087,"MEAN_ANOMALY":306.5278,"EPHEMERIS_TYPE":0,"CLASSIFICATION_TYPE":"U","NORAD_CAT_ID":39964,"ELEMENT_SET_NO":999,"REV_AT_EPOCH":62291,"BSTAR":0.0038016178,"MEAN_MOTION_DOT":0.00076824,"MEAN_MOTION_DDOT":0}]
